{"type":"FeatureCollection","features":[{"type":"Feature","properties":{"name":"Departamento del Chocó","country":"Colombia","admin_level":1,"capital":"Quibdó","population":534826,"area_km2":46530,"note":"Límites aproximados - verificar con IGAC o GADM para datos oficiales"},"geometry":{"type":"Polygon","coordinates":[[[-77.37,8.68],[-77.3,8.67],[-77.23,8.65],[-77.15,8.62],[-77.08,8.58],[-77,8.53],[-76.93,8.47],[-76.85,8.4],[-76.78,8.32],[-76.7,8.23],[-76.63,8.13],[-76.55,8.02],[-76.48,7.9],[-76.4,7.77],[-76.33,7.63],[-76.25,7.48],[-76.18,7.32],[-76.1,7.15],[-76.03,6.97],[-75.95,6.78],[-75.88,6.58],[-75.8,6.37],[-75.73,6.15],[-75.65,5.92],[-75.58,5.68],[-75.5,5.43],[-75.43,5.17],[-75.35,4.9],[-75.28,4.62],[-75.2,4.33],[-75.3,4.28],[-75.4,4.25],[-75.5,4.23],[-75.6,4.22],[-75.7,4.22],[-75.8,4.23],[-75.9,4.25],[-76,4.28],[-76.1,4.32],[-76.2,4.37],[-76.3,4.43],[-76.4,4.5],[-76.5,4.58],[-76.6,4.67],[-76.7,4.77],[-76.8,4.88],[-76.9,5],[-77,5.13],[-77.1,5.27],[-77.2,5.42],[-77.3,5.58],[-77.4,5.75],[-77.5,5.93],[-77.6,6.12],[-77.7,6.32],[-77.8,6.53],[-77.9,6.75],[-78,6.98],[-78.1,7.22],[-78.2,7.47],[-78.3,7.73],[-78.4,8],[-78.5,8.28],[-78.55,8.42],[-78.6,8.55],[-78.63,8.62],[-78.65,8.67],[-78.65,8.69],[-78.6,8.7],[-78.5,8.71],[-78.4,8.71],[-78.3,8.71],[-78.2,8.71],[-78.1,8.71],[-78,8.71],[-77.9,8.71],[-77.8,8.71],[-77.7,8.7],[-77.6,8.7],[-77.5,8.69],[-77.45,8.69],[-77.37,8.68]]]}}]}