{"type":"FeatureCollection","totalFeatures":1369,"features":[{"type":"Feature","id":"geomorfologia.1","geometry":{"type":"MultiPolygon","coordinates":[[[[-77.08094839,3.90569141],[-77.08107287,3.90573247],[-77.08249201,3.90685617],[-77.08360593,3.90825333],[-77.0834002,3.90884307],[-77.08326372,3.90883653],[-77.08159611,3.90812169],[-77.07997037,3.90734244],[-77.07818882,3.90718116],[-77.07644371,3.90761636],[-77.07468166,3.90736703],[-77.07486431,3.90641531],[-77.07749771,3.90579349],[-77.079296,3.90577576],[-77.08094839,3.90569141]]]]},"geometry_name":"geom","properties":{"unidad":"Suelos de clima cálido, pluvial y muy húmedo, originados principalmente de rocas sedimentarias del Terciario. Dystrudepts (45%), Hapludox (40%) y Hapludults (15%)","suelos":"LOMERÍO ESTRUCTURAL-EROSIONAL","shape_area":16.5704446517}},{"type":"Feature","id":"geomorfologia.2","geometry":{"type":"MultiPolygon","coordinates":[[[[-77.07388044,3.92835378],[-77.07300066,3.92777546],[-77.07164233,3.92664761],[-77.07217468,3.9263167],[-77.07361863,3.92527469],[-77.07305057,3.92374943],[-77.07146137,3.92296602],[-77.06973767,3.92247376],[-77.0680317,3.92191096],[-77.0663051,3.92141142],[-77.0648657,3.92040058],[-77.06617214,3.91942056],[-77.06796206,3.91957216],[-77.06973223,3.91985823],[-77.07148159,3.92028825],[-77.07301015,3.92123442],[-77.07439512,3.92238089],[-77.07590131,3.92336212],[-77.07743669,3.92429915],[-77.07914086,3.9248428],[-77.08094359,3.92479953],[-77.08274469,3.92479592],[-77.08448767,3.92469708],[-77.08611845,3.92390037],[-77.08779876,3.92325481],[-77.08949044,3.92266902],[-77.09123608,3.92302004],[-77.09222159,3.92453192],[-77.09370432,3.92553523],[-77.09547901,3.92583411],[-77.0971184,3.92521406],[-77.09875949,3.92447212],[-77.10048138,3.92398833],[-77.10226353,3.92419245],[-77.10260243,3.92427511],[-77.10306918,3.92463266],[-77.10428993,3.92596211],[-77.10537332,3.92741337],[-77.10541257,3.92759489],[-77.10450305,3.92733764],[-77.10273758,3.9270912],[-77.10096395,3.92738214],[-77.09921768,3.92781804],[-77.09744286,3.92809651],[-77.09564695,3.9283],[-77.09393874,3.92788236],[-77.09251125,3.92676773],[-77.09098993,3.92583854],[-77.08923167,3.92541142],[-77.08748135,3.92578909],[-77.08585601,3.9265654],[-77.08415125,3.92712246],[-77.08236139,3.92728413],[-77.080568,3.92741704],[-77.07877158,3.92750598],[-77.07698587,3.92742889],[-77.07523397,3.92785064],[-77.07388044,3.92835378]]]]},"geometry_name":"geom","properties":{"unidad":"Suelos de clima cálido, pluvial y muy húmedo, originados principalmente de rocas sedimentarias del Terciario. Dystrudepts (45%), Hapludox (40%) y Hapludults (15%)","suelos":"LOMERÍO ESTRUCTURAL-EROSIONAL","shape_area":139.453271749}},{"type":"Feature","id":"geomorfologia.3","geometry":{"type":"MultiPolygon","coordinates":[[[[-77.0694687,3.92818108],[-77.07005558,3.92835102],[-77.07165019,3.92914114],[-77.07173779,3.92938163],[-77.07037367,3.93017326],[-77.06894908,3.93127569],[-77.06757011,3.93242918],[-77.06628799,3.93365135],[-77.06531992,3.93514043],[-77.06443365,3.93670201],[-77.06358511,3.9382956],[-77.06299318,3.93999847],[-77.06298612,3.9400225],[-77.06228857,3.94110627],[-77.06131958,3.94247362],[-77.06051766,3.94390529],[-77.06027907,3.94311039],[-77.06014134,3.9413622],[-77.06082502,3.93970084],[-77.06198198,3.93854585],[-77.06278665,3.93710082],[-77.06374616,3.93573195],[-77.06487349,3.93396405],[-77.06600141,3.93253762],[-77.06730677,3.93139897],[-77.06810632,3.92978118],[-77.0692275,3.92836831],[-77.0694687,3.92818108]]]]},"geometry_name":"geom","properties":{"unidad":"Suelos de clima cálido, pluvial y muy húmedo, originados principalmente de rocas sedimentarias del Terciario. Dystrudepts (45%), Hapludox (40%) y Hapludults (15%)","suelos":"LOMERÍO ESTRUCTURAL-EROSIONAL","shape_area":30.7437894089}},{"type":"Feature","id":"geomorfologia.4","geometry":{"type":"MultiPolygon","coordinates":[[[[-77.05876785,3.94822983],[-77.05878654,3.94848208],[-77.05927543,3.95013441],[-77.05908126,3.95014873],[-77.05728499,3.95013885],[-77.05549172,3.95033215],[-77.05377828,3.95083729],[-77.05222758,3.95175275],[-77.05068476,3.95269077],[-77.04902345,3.95332668],[-77.04739786,3.95326253],[-77.04848519,3.95179157],[-77.04963641,3.95040965],[-77.05099838,3.94922395],[-77.05265256,3.94863487],[-77.05444344,3.94854554],[-77.05621666,3.94825917],[-77.05801358,3.94830689],[-77.05876785,3.94822983]]]]},"geometry_name":"geom","properties":{"unidad":"Suelos de clima cálido, pluvial y muy húmedo, originados principalmente de rocas sedimentarias del Terciario. Dystrudepts (45%), Hapludox (40%) y Hapludults (15%)","suelos":"LOMERÍO ESTRUCTURAL-EROSIONAL","shape_area":31.5526796675}},{"type":"Feature","id":"geomorfologia.5","geometry":{"type":"MultiPolygon","coordinates":[[[[-77.06215521,3.94359506],[-77.0621864,3.94528452],[-77.06239299,3.94710063],[-77.0620079,3.94863278],[-77.06085846,3.95001762],[-77.06068322,3.95003054],[-77.06066344,3.94885355],[-77.06100676,3.94709397],[-77.06151797,3.94537593],[-77.06211305,3.9436729],[-77.06215521,3.94359506]]]]},"geometry_name":"geom","properties":{"unidad":"Suelos de clima cálido, pluvial y muy húmedo, originados principalmente de rocas sedimentarias del Terciario. Dystrudepts (45%), Hapludox (40%) y Hapludults (15%)","suelos":"LOMERÍO ESTRUCTURAL-EROSIONAL","shape_area":6.77672311112}},{"type":"Feature","id":"geomorfologia.6","geometry":{"type":"MultiPolygon","coordinates":[[[[-77.11821953,3.92954253],[-77.11874797,3.92837799],[-77.11930197,3.92886016],[-77.12095552,3.92953815],[-77.1224014,3.93061257],[-77.12368835,3.93184673],[-77.12429511,3.93350838],[-77.12471648,3.93517182],[-77.12547139,3.93677537],[-77.12675978,3.93795591],[-77.12798797,3.93924889],[-77.12846337,3.94095906],[-77.12871488,3.94273541],[-77.12856171,3.94450253],[-77.12937242,3.94612953],[-77.12881817,3.94640248],[-77.12765157,3.94518603],[-77.12716706,3.94344549],[-77.12714185,3.94164507],[-77.12690618,3.93988671],[-77.12557318,3.93865444],[-77.12425433,3.93742489],[-77.12329123,3.93591302],[-77.12265506,3.93422665],[-77.12214589,3.93250261],[-77.12112055,3.93118275],[-77.11974093,3.93027916],[-77.11821953,3.92954253]]]]},"geometry_name":"geom","properties":{"unidad":"Suelos de clima cálido, pluvial y muy húmedo, originados principalmente de rocas sedimentarias del Terciario. Dystrudepts (45%), Hapludox (40%) y Hapludults (15%)","suelos":"LOMERÍO ESTRUCTURAL-EROSIONAL","shape_area":35.8756148242}},{"type":"Feature","id":"geomorfologia.7","geometry":{"type":"MultiPolygon","coordinates":[[[[-77.12679928,3.91766841],[-77.1268967,3.91810689],[-77.128676,3.91845204],[-77.12971076,3.91972833],[-77.12811396,3.92029181],[-77.1263224,3.92028191],[-77.12602277,3.92030523],[-77.12637782,3.91894803],[-77.12679928,3.91766841]]]]},"geometry_name":"geom","properties":{"unidad":"Suelos de clima cálido, pluvial y muy húmedo, originados principalmente de rocas sedimentarias del Terciario. Dystrudepts (45%), Hapludox (40%) y Hapludults (15%)","suelos":"LOMERÍO ESTRUCTURAL-EROSIONAL","shape_area":6.9857846377}},{"type":"Feature","id":"geomorfologia.8","geometry":{"type":"MultiPolygon","coordinates":[[[[-77.13517435,3.90611786],[-77.13576238,3.90528413],[-77.13581547,3.90481215],[-77.13674651,3.90567768],[-77.13555272,3.90624084],[-77.13517435,3.90611786]]]]},"geometry_name":"geom","properties":{"unidad":"Suelos de clima cálido, pluvial y muy húmedo, originados principalmente de rocas sedimentarias del Terciario. Dystrudepts (45%), Hapludox (40%) y Hapludults (15%)","suelos":"LOMERÍO ESTRUCTURAL-EROSIONAL","shape_area":1.16832752152}},{"type":"Feature","id":"geomorfologia.9","geometry":{"type":"MultiPolygon","coordinates":[[[[-77.13666675,3.89391512],[-77.13672149,3.8944197],[-77.13695445,3.89621025],[-77.13717844,3.89800197],[-77.13699126,3.89969584],[-77.13595088,3.90117956],[-77.13571702,3.90161732],[-77.13551061,3.89999956],[-77.13531986,3.89820231],[-77.13552586,3.89640536],[-77.13623544,3.89475452],[-77.13666675,3.89391512]]]]},"geometry_name":"geom","properties":{"unidad":"Suelos de clima cálido, pluvial y muy húmedo, originados principalmente de rocas sedimentarias del Terciario. Dystrudepts (45%), Hapludox (40%) y Hapludults (15%)","suelos":"LOMERÍO ESTRUCTURAL-EROSIONAL","shape_area":10.7849232827}},{"type":"Feature","id":"geomorfologia.10","geometry":{"type":"MultiPolygon","coordinates":[[[[-77.15056742,3.88576804],[-77.15170079,3.88438561],[-77.15255,3.88319504],[-77.15342563,3.88405285],[-77.1551262,3.8845952],[-77.15661278,3.88527155],[-77.15827629,3.88488844],[-77.15995814,3.88426148],[-77.1616511,3.88376537],[-77.16328462,3.88300309],[-77.16478696,3.88201105],[-77.16610874,3.88082548],[-77.16785144,3.8804133],[-77.16960955,3.88009637],[-77.17128164,3.87943844],[-77.17261295,3.87822576],[-77.17399718,3.87707322],[-77.17536846,3.87590955],[-77.17688433,3.87494054],[-77.17859044,3.87436829],[-77.18031029,3.87386693],[-77.18209577,3.87364361],[-77.18388799,3.87373699],[-77.18562208,3.87421373],[-77.18732395,3.8747944],[-77.18896574,3.87553159],[-77.1906075,3.87626878],[-77.19228705,3.87614636],[-77.19397821,3.87562252],[-77.19564179,3.8752829],[-77.1974118,3.87499415],[-77.19918669,3.87524719],[-77.20097769,3.87533313],[-77.20275539,3.87512563],[-77.20451331,3.87478047],[-77.20628705,3.87489129],[-77.20789035,3.87571996],[-77.20949366,3.87654819],[-77.21031707,3.87798648],[-77.208813,3.87786628],[-77.20737957,3.87678126],[-77.20578253,3.87611444],[-77.20400524,3.87641001],[-77.202237,3.87673487],[-77.20045142,3.87690338],[-77.1986985,3.8765177],[-77.19693283,3.87614949],[-77.19518729,3.87638279],[-77.19345617,3.87686443],[-77.1917309,3.87739339],[-77.18995867,3.87755236],[-77.18815919,3.87745966],[-77.18639136,3.87713145],[-77.18485719,3.87632891],[-77.18312925,3.87584154],[-77.18140962,3.87532121],[-77.17964959,3.87495186],[-77.17812694,3.87528986],[-77.17643588,3.87585037],[-77.17513194,3.87699123],[-77.17394103,3.87832023],[-77.17268374,3.87961271],[-77.17192234,3.88115064],[-77.17047106,3.88180957],[-77.16867432,3.88171061],[-77.16696289,3.8822372],[-77.16529384,3.8829449],[-77.16377505,3.88391045],[-77.16224051,3.88485072],[-77.16068443,3.88575383],[-77.15901914,3.88643829],[-77.15749753,3.88721883],[-77.15570794,3.88695956],[-77.15399549,3.88641444],[-77.15222217,3.88612066],[-77.15056742,3.88576804]]]]},"geometry_name":"geom","properties":{"unidad":"Suelos de clima cálido, pluvial y muy húmedo, originados principalmente de rocas sedimentarias del Terciario. Dystrudepts (45%), Hapludox (40%) y Hapludults (15%)","suelos":"LOMERÍO ESTRUCTURAL-EROSIONAL","shape_area":114.438750619}},{"type":"Feature","id":"geomorfologia.11","geometry":{"type":"MultiPolygon","coordinates":[[[[-77.135119,3.89101493],[-77.13516477,3.89095092],[-77.13506609,3.88914908],[-77.13474671,3.88736846],[-77.13437171,3.88560103],[-77.13524115,3.88533599],[-77.13702879,3.88552815],[-77.1379434,3.88404095],[-77.13875961,3.88243509],[-77.14005945,3.88119209],[-77.14183394,3.88085603],[-77.14360165,3.8811431],[-77.14536293,3.8808849],[-77.14691605,3.87995084],[-77.14835513,3.87886765],[-77.14981965,3.87782383],[-77.15127582,3.87679409],[-77.15294875,3.87620554],[-77.15383902,3.87734637],[-77.15283109,3.87877057],[-77.15170265,3.88015912],[-77.15120712,3.88187951],[-77.15132354,3.88199356],[-77.15015199,3.88240075],[-77.14868707,3.88342667],[-77.14721454,3.8844669],[-77.1464522,3.88503764],[-77.14530894,3.88460398],[-77.14365661,3.8839124],[-77.14185348,3.88395511],[-77.14027696,3.88463585],[-77.1391536,3.88602387],[-77.13849041,3.8871527],[-77.13759352,3.88800529],[-77.13676953,3.88961034],[-77.13585396,3.8910964],[-77.135119,3.89101493]]]]},"geometry_name":"geom","properties":{"unidad":"Suelos de clima cálido, pluvial y muy húmedo, originados principalmente de rocas sedimentarias del Terciario. Dystrudepts (45%), Hapludox (40%) y Hapludults (15%)","suelos":"LOMERÍO ESTRUCTURAL-EROSIONAL","shape_area":91.1942946053}},{"type":"Feature","id":"geomorfologia.12","geometry":{"type":"MultiPolygon","coordinates":[[[[-77.13351795,3.89274044],[-77.13355741,3.8929313],[-77.13387022,3.89471565],[-77.13396177,3.89652025],[-77.13292415,3.89796389],[-77.13173157,3.89862789],[-77.13170801,3.89788643],[-77.13102374,3.89620024],[-77.13126423,3.89449603],[-77.13255006,3.89328407],[-77.13351795,3.89274044]]]]},"geometry_name":"geom","properties":{"unidad":"Suelos de clima cálido, pluvial y muy húmedo, originados principalmente de rocas sedimentarias del Terciario. Dystrudepts (45%), Hapludox (40%) y Hapludults (15%)","suelos":"LOMERÍO ESTRUCTURAL-EROSIONAL","shape_area":14.0361044709}},{"type":"Feature","id":"geomorfologia.13","geometry":{"type":"MultiPolygon","coordinates":[[[[-77.13011801,3.90255533],[-77.13048265,3.90345331],[-77.13052842,3.90527436],[-77.12971967,3.90686986],[-77.12870491,3.90836548],[-77.12751467,3.90971303],[-77.12691153,3.91039365],[-77.12722805,3.90904358],[-77.12718327,3.90723314],[-77.12758607,3.9054933],[-77.12877031,3.90414795],[-77.12995453,3.90279809],[-77.13011801,3.90255533]]]]},"geometry_name":"geom","properties":{"unidad":"Suelos de clima cálido, pluvial y muy húmedo, originados principalmente de rocas sedimentarias del Terciario. Dystrudepts (45%), Hapludox (40%) y Hapludults (15%)","suelos":"LOMERÍO ESTRUCTURAL-EROSIONAL","shape_area":15.5604825372}},{"type":"Feature","id":"geomorfologia.14","geometry":{"type":"MultiPolygon","coordinates":[[[[-77.11498485,3.92572071],[-77.11513271,3.92511521],[-77.11358812,3.92441024],[-77.11262141,3.92455928],[-77.11236212,3.92446509],[-77.11063782,3.92404118],[-77.10889826,3.92362202],[-77.10722736,3.9229425],[-77.10690956,3.92275812],[-77.1067196,3.92190279],[-77.10563817,3.92045728],[-77.10441119,3.91913422],[-77.10298375,3.91804779],[-77.10140655,3.91717194],[-77.09981649,3.91632257],[-77.09953028,3.91622917],[-77.09920096,3.91590381],[-77.0982854,3.91433717],[-77.09801838,3.91260071],[-77.09860584,3.91099663],[-77.09685103,3.91068357],[-77.09520304,3.90995782],[-77.09357793,3.90920964],[-77.09227324,3.90796175],[-77.09109826,3.90659561],[-77.09026666,3.90498769],[-77.08983298,3.90344397],[-77.09286925,3.90171584],[-77.09357087,3.90252527],[-77.09488292,3.90376681],[-77.09650851,3.90450822],[-77.09815203,3.90522703],[-77.09990873,3.90553333],[-77.09932838,3.90713727],[-77.09959537,3.9088702],[-77.10052195,3.91043145],[-77.10178586,3.91167643],[-77.10293211,3.91306472],[-77.10412833,3.91441221],[-77.10554387,3.91549077],[-77.10700597,3.91653978],[-77.10856024,3.9174315],[-77.11022948,3.91810393],[-77.11197018,3.91851636],[-77.11369131,3.91893344],[-77.11536536,3.91953348],[-77.11685314,3.92054064],[-77.11823711,3.9197296],[-77.11847562,3.91792824],[-77.11967051,3.91703607],[-77.12143897,3.91731518],[-77.12318895,3.91686629],[-77.12455312,3.91570829],[-77.12532609,3.9140845],[-77.12598178,3.91250404],[-77.12591246,3.91279703],[-77.12595058,3.9146102],[-77.12553095,3.91636737],[-77.12472982,3.91798505],[-77.1240279,3.91965139],[-77.12358199,3.9205814],[-77.12275889,3.92072001],[-77.12104422,3.92129069],[-77.12011099,3.92275029],[-77.12006124,3.9228617],[-77.11835903,3.92258657],[-77.11715356,3.92347586],[-77.11690939,3.92527884],[-77.11552079,3.92608587],[-77.11498485,3.92572071]]]]},"geometry_name":"geom","properties":{"unidad":"Suelos de clima cálido, pluvial y muy húmedo, originados principalmente de rocas sedimentarias del Terciario. Dystrudepts (45%), Hapludox (40%) y Hapludults (15%)","suelos":"LOMERÍO ESTRUCTURAL-EROSIONAL","shape_area":236.321276086}},{"type":"Feature","id":"geomorfologia.15","geometry":{"type":"MultiPolygon","coordinates":[[[[-77.13126783,3.87125867],[-77.13135866,3.87125306],[-77.13150904,3.87123118],[-77.13164968,3.87120131],[-77.13194644,3.87112354],[-77.1321283,3.87106601],[-77.13228514,3.87100047],[-77.13241254,3.87092689],[-77.1325052,3.87085188],[-77.13258008,3.87076563],[-77.13261128,3.87071552],[-77.13285359,3.87126952],[-77.13344965,3.87296851],[-77.13499524,3.87383714],[-77.13682454,3.87374303],[-77.13818057,3.8747078],[-77.13693,3.87557247],[-77.13514308,3.875575],[-77.13384181,3.8743623],[-77.13243991,3.87329663],[-77.13153355,3.87171849],[-77.13126783,3.87125867]]]]},"geometry_name":"geom","properties":{"unidad":"Suelos de clima cálido, pluvial y muy húmedo, originados principalmente de rocas sedimentarias del Terciario. Dystrudepts (45%), Hapludox (40%) y Hapludults (15%)","suelos":"LOMERÍO ESTRUCTURAL-EROSIONAL","shape_area":12.3137632918}},{"type":"Feature","id":"geomorfologia.16","geometry":{"type":"MultiPolygon","coordinates":[[[[-77.17438544,3.84678065],[-77.17453922,3.84670874],[-77.17506082,3.84649482],[-77.17530238,3.84637138],[-77.1753266,3.8463545],[-77.17602429,3.84626307],[-77.17715182,3.84641109],[-77.17713145,3.84766148],[-77.1754685,3.84710486],[-77.17438544,3.84678065]]]]},"geometry_name":"geom","properties":{"unidad":"Suelos de clima cálido, pluvial y muy húmedo, originados principalmente de rocas sedimentarias del Terciario. Dystrudepts (45%), Hapludox (40%) y Hapludults (15%)","suelos":"LOMERÍO ESTRUCTURAL-EROSIONAL","shape_area":2.71613068602}},{"type":"Feature","id":"geomorfologia.17","geometry":{"type":"MultiPolygon","coordinates":[[[[-77.17627128,3.84071382],[-77.17637724,3.8405293],[-77.17643811,3.84039813],[-77.17648307,3.84025322],[-77.17651411,3.84010393],[-77.17657612,3.83972277],[-77.17662757,3.839526],[-77.17669394,3.83937596],[-77.17679881,3.83919681],[-77.17687214,3.83909074],[-77.17693505,3.83901987],[-77.17699987,3.83896604],[-77.17710592,3.83890075],[-77.17720763,3.83885593],[-77.17728218,3.83883607],[-77.17735148,3.83882981],[-77.17748991,3.8388571],[-77.17753594,3.83885879],[-77.1775985,3.83884534],[-77.17766768,3.83881564],[-77.17775924,3.83875749],[-77.17784814,3.83868133],[-77.17792401,3.83859605],[-77.17797734,3.83851226],[-77.17799616,3.83846592],[-77.17800389,3.83842484],[-77.17800036,3.83839002],[-77.17798562,3.83836212],[-77.1779351,3.83832264],[-77.17778257,3.83824661],[-77.17772235,3.83820812],[-77.17765934,3.83814173],[-77.17760202,3.83805583],[-77.17755649,3.83796184],[-77.17751951,3.83785642],[-77.17749916,3.83777191],[-77.17762652,3.83767848],[-77.17799344,3.83750993],[-77.17811772,3.8376018],[-77.17977284,3.83831302],[-77.18100407,3.83961854],[-77.18051449,3.84097032],[-77.17877167,3.84084508],[-77.17698686,3.84061745],[-77.17627128,3.84071382]]]]},"geometry_name":"geom","properties":{"unidad":"Suelos de clima cálido, pluvial y muy húmedo, originados principalmente de rocas sedimentarias del Terciario. Dystrudepts (45%), Hapludox (40%) y Hapludults (15%)","suelos":"LOMERÍO ESTRUCTURAL-EROSIONAL","shape_area":12.4836714676}},{"type":"Feature","id":"geomorfologia.18","geometry":{"type":"MultiPolygon","coordinates":[[[[-77.29901091,3.87546107],[-77.29951532,3.87525193],[-77.2996552,3.87541613],[-77.29938806,3.87543592],[-77.29901091,3.87546107]]],[[[-77.29674389,3.8755271],[-77.29679984,3.87532195],[-77.29816312,3.87564029],[-77.29779243,3.87584622],[-77.29724537,3.87589182],[-77.29714548,3.87587184],[-77.29701742,3.87584623],[-77.29674389,3.8755271]]],[[[-77.28807718,3.87916893],[-77.28774363,3.87741686],[-77.28919995,3.87697166],[-77.29066179,3.87622184],[-77.29137243,3.87456616],[-77.29212837,3.87299738],[-77.29380195,3.87324319],[-77.29503558,3.87455393],[-77.29551881,3.87477208],[-77.29519789,3.87555092],[-77.29467513,3.87644709],[-77.29445108,3.87749262],[-77.29445108,3.87831411],[-77.29445108,3.8791356],[-77.29408097,3.88061605],[-77.2929031,3.87935293],[-77.29122458,3.87910068],[-77.29046158,3.88066946],[-77.28974441,3.88232505],[-77.28858185,3.88291693],[-77.2886946,3.88256778],[-77.2887463,3.8807854],[-77.28807718,3.87916893]]]]},"geometry_name":"geom","properties":{"unidad":"Suelos de clima cálido, pluvial y muy húmedo, originados principalmente de rocas sedimentarias del Terciario. Dystrudepts (45%), Hapludox (40%) y Hapludults (15%)","suelos":"LOMERÍO ESTRUCTURAL-EROSIONAL","shape_area":45.0133474976}},{"type":"Feature","id":"geomorfologia.19","geometry":{"type":"MultiPolygon","coordinates":[[[[-77.26899052,3.884781],[-77.26898683,3.88312354],[-77.26902565,3.88132368],[-77.26948364,3.87956916],[-77.27035269,3.87801684],[-77.27193035,3.87726023],[-77.2733331,3.87810033],[-77.27408994,3.87974756],[-77.27496945,3.8813198],[-77.27528854,3.88309566],[-77.27555313,3.88487287],[-77.27702563,3.88543774],[-77.27864196,3.88464665],[-77.28012745,3.88448751],[-77.27899992,3.885713],[-77.27840321,3.88719318],[-77.27990527,3.88783304],[-77.28090862,3.88928182],[-77.28263339,3.88895131],[-77.28307528,3.89068041],[-77.2837028,3.89199518],[-77.28502243,3.89074413],[-77.28599594,3.88923027],[-77.28671786,3.88757521],[-77.2872738,3.88585466],[-77.28734083,3.88573306],[-77.28781409,3.8868889],[-77.28775303,3.88867399],[-77.28719607,3.89038774],[-77.28631864,3.89196085],[-77.28575406,3.89368203],[-77.28502923,3.89533714],[-77.284045,3.8968499],[-77.28272506,3.89809804],[-77.28209942,3.89677908],[-77.28166454,3.89504578],[-77.27993263,3.89537048],[-77.27893315,3.89391589],[-77.27743009,3.89326975],[-77.27803283,3.8917894],[-77.27916966,3.89056608],[-77.27768186,3.8907201],[-77.27605674,3.89150664],[-77.27458424,3.8909356],[-77.2743248,3.8891546],[-77.27401199,3.88737502],[-77.27313462,3.88579715],[-77.27238691,3.88414463],[-77.27098305,3.88329826],[-77.26940371,3.88405022],[-77.26899052,3.884781]]]]},"geometry_name":"geom","properties":{"unidad":"Suelos de clima cálido, pluvial y muy húmedo, originados principalmente de rocas sedimentarias del Terciario. Dystrudepts (45%), Hapludox (40%) y Hapludults (15%)","suelos":"LOMERÍO ESTRUCTURAL-EROSIONAL","shape_area":144.942057446}},{"type":"Feature","id":"geomorfologia.20","geometry":{"type":"MultiPolygon","coordinates":[[[[-77.26804487,3.88798729],[-77.26801508,3.88916006],[-77.26801507,3.89071131],[-77.26653872,3.89071455],[-77.26616599,3.88870415],[-77.26790117,3.88829295],[-77.26804487,3.88798729]]]]},"geometry_name":"geom","properties":{"unidad":"Suelos de clima cálido, pluvial y muy húmedo, originados principalmente de rocas sedimentarias del Terciario. Dystrudepts (45%), Hapludox (40%) y Hapludults (15%)","suelos":"LOMERÍO ESTRUCTURAL-EROSIONAL","shape_area":4.64978316386}},{"type":"Feature","id":"geomorfologia.21","geometry":{"type":"MultiPolygon","coordinates":[[[[-77.26526327,3.89471741],[-77.2651692,3.89473937],[-77.2655354,3.89675402],[-77.26733601,3.89675664],[-77.26912899,3.89666294],[-77.26952571,3.89660303],[-77.26975905,3.89674804],[-77.27149025,3.89720131],[-77.27211322,3.89659876],[-77.27265389,3.8966892],[-77.27391279,3.89786056],[-77.27298962,3.89935283],[-77.27117372,3.89915208],[-77.27112033,3.90055612],[-77.27163152,3.90215787],[-77.27047223,3.90326825],[-77.26949937,3.90283026],[-77.26838389,3.90144399],[-77.26725503,3.9000922],[-77.26583778,3.89897742],[-77.26431424,3.89802215],[-77.26273998,3.89714883],[-77.26190248,3.89557478],[-77.26304925,3.89452751],[-77.26485922,3.89456128],[-77.26526327,3.89471741]]]]},"geometry_name":"geom","properties":{"unidad":"Suelos de clima cálido, pluvial y muy húmedo, originados principalmente de rocas sedimentarias del Terciario. Dystrudepts (45%), Hapludox (40%) y Hapludults (15%)","suelos":"LOMERÍO ESTRUCTURAL-EROSIONAL","shape_area":50.8414960839}},{"type":"Feature","id":"geomorfologia.22","geometry":{"type":"MultiPolygon","coordinates":[[[[-77.02321065,3.9125414],[-77.02394955,3.91315749],[-77.02365655,3.91432508],[-77.02245826,3.9149961],[-77.0207551,3.91542659],[-77.01895672,3.9154414],[-77.01716201,3.91552785],[-77.01536362,3.91554214],[-77.0135792,3.91569742],[-77.01190869,3.91629259],[-77.01011855,3.91609731],[-77.00853192,3.9152839],[-77.00679338,3.9148762],[-77.005949,3.91466752],[-77.00761176,3.91378792],[-77.00737064,3.91233242],[-77.00570427,3.91168349],[-77.00390547,3.91158366],[-77.0024795,3.9105726],[-77.00114003,3.90938848],[-76.99967136,3.90836294],[-76.99866553,3.90697784],[-76.99848552,3.90529291],[-76.9996466,3.90640254],[-77.0008981,3.90769418],[-77.00215196,3.90898474],[-77.00375369,3.90979199],[-77.00552346,3.91010297],[-77.00727545,3.9101663],[-77.00906496,3.91018152],[-77.01047344,3.91117113],[-77.01100531,3.9128463],[-77.01276011,3.91323018],[-77.01455672,3.91316971],[-77.01631335,3.91277907],[-77.0180982,3.91293082],[-77.01985086,3.91334299],[-77.02143124,3.9128593],[-77.02317027,3.91258845],[-77.02321065,3.9125414]]]]},"geometry_name":"geom","properties":{"unidad":"Suelos de clima cálido, pluvial y muy húmedo, originados principalmente de rocas sedimentarias del Terciario. Dystrudepts (45%), Hapludox (40%) y Hapludults (15%)","suelos":"LOMERÍO ESTRUCTURAL-EROSIONAL","shape_area":80.4300883503}},{"type":"Feature","id":"geomorfologia.23","geometry":{"type":"MultiPolygon","coordinates":[[[[-77.05716499,3.90667794],[-77.05746566,3.90795579],[-77.05715357,3.9082913],[-77.05709598,3.908031],[-77.05716499,3.90667794]]]]},"geometry_name":"geom","properties":{"unidad":"Suelos de clima cálido, pluvial y muy húmedo, originados principalmente de rocas sedimentarias del Terciario. Dystrudepts (45%), Hapludox (40%) y Hapludults (15%)","suelos":"LOMERÍO ESTRUCTURAL-EROSIONAL","shape_area":0.366706352415}},{"type":"Feature","id":"geomorfologia.24","geometry":{"type":"MultiPolygon","coordinates":[[[[-77.21348799,4.05935982],[-77.21369903,4.05928277],[-77.21529362,4.06005286],[-77.21527293,4.06016878],[-77.21466601,4.06018605],[-77.21348799,4.05935982]]]]},"geometry_name":"geom","properties":{"unidad":"Suelos de clima cálido, húmedo y muy húmedo, derivados de rocas sedimentarias del Terciario medio y superior (localmente evaporitas y capas de carbón). Dystrudepts (45%), Udorthents (40%), Eutrudepts (10%) y Quartzipsamments (5%)","suelos":"LOMERÍO ESTRUCTURAL-EROSIONAL","shape_area":0.634783242301}},{"type":"Feature","id":"geomorfologia.25","geometry":{"type":"MultiPolygon","coordinates":[[[[-77.24135182,4.05723518],[-77.2414634,4.05720286],[-77.2428291,4.05778411],[-77.24266124,4.05959181],[-77.24176857,4.06115157],[-77.24050206,4.06243571],[-77.23938048,4.0638424],[-77.23808343,4.0650612],[-77.23658039,4.06602727],[-77.23522231,4.0672189],[-77.23381845,4.06833759],[-77.2323383,4.06937663],[-77.23069791,4.07009233],[-77.22916436,4.07102265],[-77.22843953,4.07236355],[-77.22903463,4.07402056],[-77.22743241,4.07475062],[-77.22661447,4.07492677],[-77.22629699,4.0739938],[-77.22620344,4.07218718],[-77.22644764,4.07039772],[-77.22744802,4.06894745],[-77.22913819,4.06857673],[-77.23073766,4.06784196],[-77.23013828,4.06618963],[-77.23085466,4.06484818],[-77.23238193,4.06391378],[-77.23401856,4.06319292],[-77.23548856,4.06214983],[-77.23688919,4.06102757],[-77.23824177,4.0598326],[-77.23973793,4.05886283],[-77.24103142,4.05764102],[-77.24135182,4.05723518]]]]},"geometry_name":"geom","properties":{"unidad":"Suelos de clima cálido, húmedo y muy húmedo, derivados de rocas sedimentarias del Terciario medio y superior (localmente evaporitas y capas de carbón). Dystrudepts (45%), Udorthents (40%), Eutrudepts (10%) y Quartzipsamments (5%)","suelos":"LOMERÍO ESTRUCTURAL-EROSIONAL","shape_area":92.6795348399}},{"type":"Feature","id":"geomorfologia.26","geometry":{"type":"MultiPolygon","coordinates":[[[[-77.24031927,4.07662123],[-77.24018386,4.0777734],[-77.23991828,4.07955553],[-77.23923207,4.08113838],[-77.23884637,4.08130001],[-77.23900658,4.08043223],[-77.23938043,4.07866362],[-77.23980773,4.07690645],[-77.24031927,4.07662123]]]]},"geometry_name":"geom","properties":{"unidad":"Suelos de clima cálido, húmedo y muy húmedo, derivados de rocas sedimentarias del Terciario medio y superior (localmente evaporitas y capas de carbón). Dystrudepts (45%), Udorthents (40%), Eutrudepts (10%) y Quartzipsamments (5%)","suelos":"LOMERÍO ESTRUCTURAL-EROSIONAL","shape_area":3.20992035539}},{"type":"Feature","id":"geomorfologia.27","geometry":{"type":"MultiPolygon","coordinates":[[[[-77.25463142,4.10144739],[-77.2556926,4.10231362],[-77.25669208,4.103737],[-77.25669445,4.10391637],[-77.25556151,4.10473299],[-77.2538581,4.1053238],[-77.25209449,4.10503737],[-77.2503659,4.10508553],[-77.24883482,4.1060307],[-77.24736416,4.10706592],[-77.24587705,4.10808699],[-77.24452654,4.10921656],[-77.2429444,4.11008353],[-77.24138547,4.11096723],[-77.24071054,4.11067933],[-77.24184982,4.10927688],[-77.24329676,4.1082198],[-77.24471267,4.10711194],[-77.24611604,4.10598284],[-77.2475076,4.10483958],[-77.24887497,4.1036716],[-77.25030436,4.10259591],[-77.25209477,4.10240592],[-77.25381016,4.10186293],[-77.25463142,4.10144739]]]]},"geometry_name":"geom","properties":{"unidad":"Suelos de clima cálido, húmedo y muy húmedo, derivados de rocas sedimentarias del Terciario medio y superior (localmente evaporitas y capas de carbón). Dystrudepts (45%), Udorthents (40%), Eutrudepts (10%) y Quartzipsamments (5%)","suelos":"LOMERÍO ESTRUCTURAL-EROSIONAL","shape_area":43.1057929145}},{"type":"Feature","id":"geomorfologia.28","geometry":{"type":"MultiPolygon","coordinates":[[[[-77.26942321,3.90933832],[-77.26998348,3.90959326],[-77.27178409,3.90961208],[-77.2735847,3.90960327],[-77.27537765,3.90970962],[-77.27683494,3.91068596],[-77.27823877,3.9118087],[-77.27902382,3.91196028],[-77.27820817,3.91209033],[-77.27644917,3.91246728],[-77.27469882,3.91286386],[-77.27290408,3.91299552],[-77.27109728,3.9129002],[-77.2696415,3.91187706],[-77.26915563,3.91027622],[-77.26942321,3.90933832]]]]},"geometry_name":"geom","properties":{"unidad":"Suelos de clima cálido, pluvial y muy húmedo, originados principalmente de rocas sedimentarias del Terciario. Dystrudepts (45%), Hapludox (40%) y Hapludults (15%)","suelos":"LOMERÍO ESTRUCTURAL-EROSIONAL","shape_area":29.2967424802}},{"type":"Feature","id":"geomorfologia.29","geometry":{"type":"MultiPolygon","coordinates":[[[[-77.28446287,3.9166923],[-77.28450162,3.91592389],[-77.2844569,3.91559942],[-77.28466294,3.91532444],[-77.28598287,3.91654325],[-77.28731046,3.91773537],[-77.28816429,3.91765253],[-77.28811518,3.91800251],[-77.28676838,3.9192108],[-77.28625881,3.91925503],[-77.28615836,3.91905264],[-77.2852733,3.91750363],[-77.28446287,3.9166923]]]]},"geometry_name":"geom","properties":{"unidad":"Suelos de clima cálido, pluvial y muy húmedo, originados principalmente de rocas sedimentarias del Terciario. Dystrudepts (45%), Hapludox (40%) y Hapludults (15%)","suelos":"LOMERÍO ESTRUCTURAL-EROSIONAL","shape_area":7.00671504923}},{"type":"Feature","id":"geomorfologia.30","geometry":{"type":"MultiPolygon","coordinates":[[[[-77.2857332,3.91078003],[-77.2863182,3.91136108],[-77.28721129,3.91290452],[-77.28795918,3.91439776],[-77.2866772,3.91376114],[-77.28489184,3.91341063],[-77.28357191,3.91220756],[-77.28366348,3.91059799],[-77.28544882,3.91079969],[-77.2857332,3.91078003]]]]},"geometry_name":"geom","properties":{"unidad":"Suelos de clima cálido, pluvial y muy húmedo, originados principalmente de rocas sedimentarias del Terciario. Dystrudepts (45%), Hapludox (40%) y Hapludults (15%)","suelos":"LOMERÍO ESTRUCTURAL-EROSIONAL","shape_area":10.4438091997}},{"type":"Feature","id":"geomorfologia.31","geometry":{"type":"MultiPolygon","coordinates":[[[[-77.28723246,3.9105834],[-77.28766907,3.90914433],[-77.28717155,3.90751639],[-77.28770638,3.9076194],[-77.28932533,3.90841569],[-77.29040162,3.90980937],[-77.29001103,3.91141805],[-77.28835248,3.91158523],[-77.28723246,3.9105834]]]]},"geometry_name":"geom","properties":{"unidad":"Suelos de clima cálido, pluvial y muy húmedo, originados principalmente de rocas sedimentarias del Terciario. Dystrudepts (45%), Hapludox (40%) y Hapludults (15%)","suelos":"LOMERÍO ESTRUCTURAL-EROSIONAL","shape_area":10.6430595994}},{"type":"Feature","id":"geomorfologia.32","geometry":{"type":"MultiPolygon","coordinates":[[[[-77.31280069,3.91043513],[-77.31402195,3.90971331],[-77.31444156,3.9093946],[-77.31460464,3.91004722],[-77.31298664,3.91053141],[-77.31280069,3.91043513]]]]},"geometry_name":"geom","properties":{"unidad":"Suelos de clima cálido, pluvial y muy húmedo, originados principalmente de rocas sedimentarias del Terciario. Dystrudepts (45%), Hapludox (40%) y Hapludults (15%)","suelos":"LOMERÍO ESTRUCTURAL-EROSIONAL","shape_area":0.862461932672}},{"type":"Feature","id":"geomorfologia.33","geometry":{"type":"MultiPolygon","coordinates":[[[[-77.31712,3.91292279],[-77.31670757,3.91397816],[-77.31801988,3.91515002],[-77.31856156,3.91671715],[-77.31751629,3.91805397],[-77.31647073,3.91889405],[-77.31592964,3.91755636],[-77.31535167,3.91584991],[-77.31579067,3.91414851],[-77.31711589,3.9129261],[-77.31712,3.91292279]]]]},"geometry_name":"geom","properties":{"unidad":"Suelos de clima cálido, pluvial y muy húmedo, originados principalmente de rocas sedimentarias del Terciario. Dystrudepts (45%), Hapludox (40%) y Hapludults (15%)","suelos":"LOMERÍO ESTRUCTURAL-EROSIONAL","shape_area":12.6037464491}},{"type":"Feature","id":"geomorfologia.34","geometry":{"type":"MultiPolygon","coordinates":[[[[-77.31549662,3.92529048],[-77.31557834,3.92549486],[-77.31607427,3.92723512],[-77.31629552,3.92902376],[-77.3160819,3.93081213],[-77.31474669,3.93162635],[-77.31297662,3.93123365],[-77.3112218,3.93141271],[-77.30986369,3.93263153],[-77.30904628,3.9338393],[-77.30901988,3.93302716],[-77.30890566,3.93122408],[-77.3090769,3.92944126],[-77.30992813,3.92785455],[-77.3109232,3.92637671],[-77.31227757,3.9251548],[-77.31402378,3.92496973],[-77.31549662,3.92529048]]]]},"geometry_name":"geom","properties":{"unidad":"Suelos de clima cálido, pluvial y muy húmedo, originados principalmente de rocas sedimentarias del Terciario. Dystrudepts (45%), Hapludox (40%) y Hapludults (15%)","suelos":"LOMERÍO ESTRUCTURAL-EROSIONAL","shape_area":49.6194122942}},{"type":"Feature","id":"geomorfologia.35","geometry":{"type":"MultiPolygon","coordinates":[[[[-77.30634265,3.95765166],[-77.30682675,3.95755993],[-77.30628163,3.95609097],[-77.30483973,3.95503054],[-77.30409182,3.95342805],[-77.30402131,3.95163156],[-77.30521002,3.95040464],[-77.30691174,3.95032459],[-77.3077836,3.95188148],[-77.3080799,3.95366417],[-77.30912964,3.95502343],[-77.31084184,3.95460819],[-77.31183737,3.9536956],[-77.31234328,3.95477705],[-77.31262557,3.95651227],[-77.31209913,3.95824584],[-77.31102333,3.95968804],[-77.30968053,3.96090755],[-77.30796384,3.96131716],[-77.30691859,3.95995197],[-77.30662867,3.95816548],[-77.30634265,3.95765166]]]]},"geometry_name":"geom","properties":{"unidad":"Suelos de clima cálido, pluvial y muy húmedo, originados principalmente de rocas sedimentarias del Terciario. Dystrudepts (45%), Hapludox (40%) y Hapludults (15%)","suelos":"LOMERÍO ESTRUCTURAL-EROSIONAL","shape_area":61.0425289669}},{"type":"Feature","id":"geomorfologia.36","geometry":{"type":"MultiPolygon","coordinates":[[[[-77.30116112,3.95882698],[-77.30163323,3.95857684],[-77.30286811,3.9581527],[-77.30292062,3.95970089],[-77.30366834,3.96130882],[-77.30511036,3.96237597],[-77.30564443,3.96384919],[-77.30393536,3.96416676],[-77.30214241,3.96427071],[-77.30044097,3.96484889],[-77.29884636,3.96568524],[-77.29713734,3.96612658],[-77.29535198,3.96603311],[-77.29426094,3.96467362],[-77.29518416,3.96315749],[-77.2967177,3.96230537],[-77.29831994,3.96152717],[-77.29976958,3.96043762],[-77.30099796,3.95915155],[-77.30116112,3.95882698]]]]},"geometry_name":"geom","properties":{"unidad":"Suelos de clima cálido, pluvial y muy húmedo, originados principalmente de rocas sedimentarias del Terciario. Dystrudepts (45%), Hapludox (40%) y Hapludults (15%)","suelos":"LOMERÍO ESTRUCTURAL-EROSIONAL","shape_area":53.5535766241}},{"type":"Feature","id":"geomorfologia.37","geometry":{"type":"MultiPolygon","coordinates":[[[[-77.2986422,3.95062348],[-77.29889872,3.95077851],[-77.30053726,3.95021125],[-77.30221151,3.94975046],[-77.3029698,3.9512773],[-77.30216969,3.95288647],[-77.30094302,3.95417511],[-77.29950205,3.9552681],[-77.29790772,3.9560508],[-77.29697936,3.95657056],[-77.29630574,3.95616104],[-77.29643544,3.95434283],[-77.29730522,3.95279618],[-77.29822841,3.95124504],[-77.2986422,3.95062348]]]]},"geometry_name":"geom","properties":{"unidad":"Suelos de clima cálido, pluvial y muy húmedo, originados principalmente de rocas sedimentarias del Terciario. Dystrudepts (45%), Hapludox (40%) y Hapludults (15%)","suelos":"LOMERÍO ESTRUCTURAL-EROSIONAL","shape_area":30.2865329027}},{"type":"Feature","id":"geomorfologia.38","geometry":{"type":"MultiPolygon","coordinates":[[[[-77.29177663,3.95212851],[-77.29180528,3.95207359],[-77.29205524,3.95028434],[-77.29146871,3.94885142],[-77.29192632,3.94773356],[-77.29275793,3.9461874],[-77.2929735,3.94595646],[-77.29316496,3.94620953],[-77.29471568,3.94560371],[-77.29615454,3.94454396],[-77.29723741,3.94310127],[-77.29868179,3.9420331],[-77.29980537,3.94068052],[-77.30143819,3.9402211],[-77.30136793,3.94198656],[-77.30036752,3.9434999],[-77.29937197,3.94500261],[-77.29845928,3.94655464],[-77.29759488,3.94810196],[-77.2975868,3.94822355],[-77.29754938,3.94826834],[-77.29609209,3.94933312],[-77.29500869,3.95077391],[-77.29355906,3.95183012],[-77.2920026,3.95243141],[-77.29177663,3.95212851]]]]},"geometry_name":"geom","properties":{"unidad":"Suelos de clima cálido, pluvial y muy húmedo, originados principalmente de rocas sedimentarias del Terciario. Dystrudepts (45%), Hapludox (40%) y Hapludults (15%)","suelos":"LOMERÍO ESTRUCTURAL-EROSIONAL","shape_area":54.9951361577}},{"type":"Feature","id":"geomorfologia.39","geometry":{"type":"MultiPolygon","coordinates":[[[[-77.29421744,3.92999127],[-77.29386051,3.92952112],[-77.2929353,3.92796782],[-77.29331533,3.92626095],[-77.29444782,3.92485599],[-77.29557175,3.92344762],[-77.29686203,3.92219147],[-77.29834378,3.92119427],[-77.30011932,3.92119924],[-77.30139346,3.92232583],[-77.30137462,3.92414298],[-77.30114885,3.92593386],[-77.30163813,3.92765425],[-77.3023357,3.92932868],[-77.3024318,3.93110022],[-77.30156642,3.93266787],[-77.3005963,3.93397613],[-77.30055549,3.93387747],[-77.30007483,3.93215276],[-77.30030372,3.93035983],[-77.30033425,3.92853994],[-77.2990601,3.92740698],[-77.29728239,3.92739552],[-77.29579461,3.92838902],[-77.29449758,3.9296424],[-77.29421744,3.92999127]]]]},"geometry_name":"geom","properties":{"unidad":"Suelos de clima cálido, pluvial y muy húmedo, originados principalmente de rocas sedimentarias del Terciario. Dystrudepts (45%), Hapludox (40%) y Hapludults (15%)","suelos":"LOMERÍO ESTRUCTURAL-EROSIONAL","shape_area":67.7963169626}},{"type":"Feature","id":"geomorfologia.40","geometry":{"type":"MultiPolygon","coordinates":[[[[-77.28272384,3.94089673],[-77.28274783,3.94037465],[-77.28159576,3.93934682],[-77.28122357,3.93974964],[-77.28075967,3.93951],[-77.28029781,3.93788033],[-77.28090209,3.93619577],[-77.28152551,3.93449027],[-77.28272178,3.93318321],[-77.28388144,3.93420517],[-77.28380302,3.93602828],[-77.28407627,3.93782058],[-77.28516381,3.93922781],[-77.28672028,3.94012182],[-77.28841123,3.94032186],[-77.28976771,3.93916259],[-77.29030498,3.93743705],[-77.29119394,3.93599012],[-77.29255015,3.9353654],[-77.29275798,3.93571927],[-77.29383375,3.93714169],[-77.29413895,3.93890504],[-77.29316995,3.94039448],[-77.29172033,3.9414354],[-77.29006468,3.9421888],[-77.28917203,3.94363483],[-77.28863032,3.94536101],[-77.28828808,3.9456507],[-77.28820941,3.94495627],[-77.28811696,3.94312933],[-77.28679733,3.94203407],[-77.28503082,3.9420567],[-77.2833317,3.9417636],[-77.28272384,3.94089673]]]]},"geometry_name":"geom","properties":{"unidad":"Suelos de clima cálido, pluvial y muy húmedo, originados principalmente de rocas sedimentarias del Terciario. Dystrudepts (45%), Hapludox (40%) y Hapludults (15%)","suelos":"LOMERÍO ESTRUCTURAL-EROSIONAL","shape_area":72.2444012407}},{"type":"Feature","id":"geomorfologia.41","geometry":{"type":"MultiPolygon","coordinates":[[[[-77.27748628,3.96548543],[-77.27698983,3.96277306],[-77.27668631,3.96099998],[-77.27748208,3.95941518],[-77.27917669,3.95925113],[-77.27972405,3.96072184],[-77.280136,3.96248095],[-77.28129069,3.96349289],[-77.28246034,3.96213955],[-77.28306966,3.96044249],[-77.28384787,3.95883228],[-77.28502267,3.95747849],[-77.28642308,3.95635172],[-77.28805709,3.955605],[-77.2897397,3.95497038],[-77.28999148,3.95470482],[-77.29020198,3.95483326],[-77.29088104,3.95650839],[-77.2906216,3.95829965],[-77.28978234,3.95989541],[-77.28903532,3.96067988],[-77.28847031,3.96034313],[-77.28710263,3.96121978],[-77.28669886,3.96189263],[-77.2852198,3.96256475],[-77.28380829,3.96368821],[-77.28262571,3.96504004],[-77.28183984,3.96664988],[-77.28163745,3.96721266],[-77.28134247,3.96731589],[-77.27960276,3.96775443],[-77.27871538,3.96789838],[-77.27849043,3.96691735],[-77.27794872,3.96544247],[-77.27748628,3.96548543]]]]},"geometry_name":"geom","properties":{"unidad":"Suelos de clima cálido, pluvial y muy húmedo, originados principalmente de rocas sedimentarias del Terciario. Dystrudepts (45%), Hapludox (40%) y Hapludults (15%)","suelos":"LOMERÍO ESTRUCTURAL-EROSIONAL","shape_area":87.9460001482}},{"type":"Feature","id":"geomorfologia.42","geometry":{"type":"MultiPolygon","coordinates":[[[[-77.27720305,3.96551175],[-77.2762473,3.96560056],[-77.27544618,3.96718487],[-77.27557878,3.96797677],[-77.274294,3.96763112],[-77.27303067,3.96642439],[-77.27269067,3.96467575],[-77.27429567,3.96413962],[-77.27586348,3.96503924],[-77.27720305,3.96551175]]]]},"geometry_name":"geom","properties":{"unidad":"Suelos de clima cálido, pluvial y muy húmedo, originados principalmente de rocas sedimentarias del Terciario. Dystrudepts (45%), Hapludox (40%) y Hapludults (15%)","suelos":"LOMERÍO ESTRUCTURAL-EROSIONAL","shape_area":10.9410031506}},{"type":"Feature","id":"geomorfologia.43","geometry":{"type":"MultiPolygon","coordinates":[[[[-77.27735351,3.98035484],[-77.27749803,3.97899657],[-77.27719276,3.97721737],[-77.27749184,3.97550571],[-77.27863908,3.97414236],[-77.27975163,3.97361053],[-77.28008498,3.97352761],[-77.28041472,3.9734136],[-77.28185383,3.97387983],[-77.28215275,3.97561677],[-77.28132668,3.97720007],[-77.28152584,3.97899052],[-77.28279562,3.98027222],[-77.28411411,3.97916326],[-77.28508484,3.97765384],[-77.28577128,3.97598015],[-77.28665236,3.97441017],[-77.28735926,3.97279121],[-77.28727518,3.97098009],[-77.28814346,3.96941413],[-77.28895869,3.96798288],[-77.28943136,3.96915902],[-77.28953817,3.97090547],[-77.28867601,3.97253077],[-77.28779097,3.97408697],[-77.28689065,3.97565384],[-77.28601323,3.97721907],[-77.28609715,3.97903347],[-77.28537998,3.98065233],[-77.28449491,3.98222163],[-77.28380064,3.98389536],[-77.28282404,3.98540359],[-77.28149647,3.98650941],[-77.28022992,3.98522097],[-77.28003918,3.98342709],[-77.28087085,3.98184442],[-77.2805733,3.98010348],[-77.27898629,3.97958228],[-77.27735354,3.98035476],[-77.27735351,3.98035484]]]]},"geometry_name":"geom","properties":{"unidad":"Suelos de clima cálido, pluvial y muy húmedo, originados principalmente de rocas sedimentarias del Terciario. Dystrudepts (45%), Hapludox (40%) y Hapludults (15%)","suelos":"LOMERÍO ESTRUCTURAL-EROSIONAL","shape_area":78.468240949}},{"type":"Feature","id":"geomorfologia.44","geometry":{"type":"MultiPolygon","coordinates":[[[[-77.2723796,3.9825824],[-77.27274846,3.98229889],[-77.27245522,3.98058276],[-77.27151861,3.9790137],[-77.27113965,3.97732668],[-77.27224851,3.97593866],[-77.27382892,3.97643191],[-77.2749997,3.97769541],[-77.27508703,3.97950095],[-77.27595319,3.9810105],[-77.27696269,3.98081658],[-77.27620147,3.98171592],[-77.27589628,3.98342923],[-77.27619385,3.98521239],[-77.2760031,3.98696738],[-77.27463739,3.98722367],[-77.27377524,3.98570852],[-77.27369895,3.98390009],[-77.27253162,3.98263025],[-77.2723796,3.9825824]]]]},"geometry_name":"geom","properties":{"unidad":"Suelos de clima cálido, pluvial y muy húmedo, originados principalmente de rocas sedimentarias del Terciario. Dystrudepts (45%), Hapludox (40%) y Hapludults (15%)","suelos":"LOMERÍO ESTRUCTURAL-EROSIONAL","shape_area":39.7684539028}},{"type":"Feature","id":"geomorfologia.45","geometry":{"type":"MultiPolygon","coordinates":[[[[-77.25408863,3.97685148],[-77.25405727,3.97738388],[-77.25289367,3.97874278],[-77.25335722,3.98021615],[-77.25514724,3.98026792],[-77.25687884,3.98065225],[-77.25703719,3.98236723],[-77.25735065,3.98393778],[-77.25888971,3.98318687],[-77.26061365,3.98274788],[-77.26127092,3.98416119],[-77.26139636,3.98594294],[-77.26195428,3.98751811],[-77.26357079,3.98702981],[-77.26441821,3.98545373],[-77.26492126,3.98373169],[-77.26608984,3.98249754],[-77.26787829,3.98275746],[-77.26961595,3.98322584],[-77.27003884,3.98325751],[-77.2698307,3.98351647],[-77.27020453,3.98520758],[-77.27113536,3.98678261],[-77.27142528,3.98850234],[-77.2700443,3.98955732],[-77.26828187,3.98941929],[-77.26654991,3.98894387],[-77.26475696,3.98867683],[-77.263582,3.98990876],[-77.26307078,3.99163158],[-77.26221625,3.99320706],[-77.26059879,3.99369012],[-77.2600418,3.99211032],[-77.25992738,3.9903255],[-77.25927122,3.9889076],[-77.25753929,3.98934082],[-77.25599808,3.99008731],[-77.25569291,3.98851325],[-77.25554032,3.98679518],[-77.25380838,3.98640372],[-77.25201541,3.98634527],[-77.25154999,3.98486803],[-77.25272498,3.9835114],[-77.2528318,3.98178906],[-77.25116092,3.98113506],[-77.2500241,3.9800183],[-77.25103122,3.97861639],[-77.25248084,3.97754279],[-77.25408863,3.97685148]]]]},"geometry_name":"geom","properties":{"unidad":"Suelos de clima cálido, pluvial y muy húmedo, originados principalmente de rocas sedimentarias del Terciario. Dystrudepts (45%), Hapludox (40%) y Hapludults (15%)","suelos":"LOMERÍO ESTRUCTURAL-EROSIONAL","shape_area":154.929193384}},{"type":"Feature","id":"geomorfologia.46","geometry":{"type":"MultiPolygon","coordinates":[[[[-77.26251053,3.96951421],[-77.26248503,3.96962441],[-77.26226236,3.9697069],[-77.26251053,3.96951421]]]]},"geometry_name":"geom","properties":{"unidad":"Suelos de clima cálido, pluvial y muy húmedo, originados principalmente de rocas sedimentarias del Terciario. Dystrudepts (45%), Hapludox (40%) y Hapludults (15%)","suelos":"LOMERÍO ESTRUCTURAL-EROSIONAL","shape_area":0.0138177770152}},{"type":"Feature","id":"geomorfologia.47","geometry":{"type":"MultiPolygon","coordinates":[[[[-77.26200811,3.95986973],[-77.26291951,3.959081],[-77.26448435,3.95819008],[-77.26616356,3.95750017],[-77.2673505,3.95830316],[-77.26717312,3.96010293],[-77.26634532,3.96169807],[-77.2647833,3.96258555],[-77.26336872,3.963691],[-77.26169613,3.96435541],[-77.26004232,3.9650689],[-77.25969813,3.96659457],[-77.25974535,3.96662571],[-77.2586609,3.96709827],[-77.25773773,3.96588209],[-77.25862277,3.96429323],[-77.25980535,3.96292517],[-77.26097271,3.96155306],[-77.26194929,3.96003313],[-77.26200811,3.95986973]]]]},"geometry_name":"geom","properties":{"unidad":"Suelos de clima cálido, pluvial y muy húmedo, originados principalmente de rocas sedimentarias del Terciario. Dystrudepts (45%), Hapludox (40%) y Hapludults (15%)","suelos":"LOMERÍO ESTRUCTURAL-EROSIONAL","shape_area":42.6286279794}},{"type":"Feature","id":"geomorfologia.48","geometry":{"type":"MultiPolygon","coordinates":[[[[-77.22819675,3.97236848],[-77.22885179,3.97190906],[-77.22917362,3.97109382],[-77.2299096,3.97102235],[-77.23161181,3.97043631],[-77.23255749,3.96997917],[-77.23292604,3.9699731],[-77.23473425,3.96998407],[-77.23536775,3.96986639],[-77.23575187,3.97052932],[-77.23636147,3.9722527],[-77.23784032,3.97310936],[-77.23955343,3.97363721],[-77.2413536,3.97371158],[-77.24308041,3.97413381],[-77.24484172,3.97434202],[-77.24662075,3.97434031],[-77.24822362,3.97350797],[-77.24961012,3.97238295],[-77.25049586,3.97082026],[-77.2509569,3.96912652],[-77.25210698,3.96775588],[-77.25353934,3.96672378],[-77.25453959,3.96525264],[-77.25567043,3.96386229],[-77.25610722,3.96212759],[-77.25663846,3.96042629],[-77.25766118,3.95896809],[-77.25874193,3.95752879],[-77.25972961,3.95601987],[-77.26063559,3.95445713],[-77.26173048,3.95304884],[-77.26251264,3.9514257],[-77.26322041,3.94976546],[-77.26404817,3.94858843],[-77.26392939,3.95044505],[-77.26378277,3.9522328],[-77.26318229,3.95390842],[-77.26221488,3.95542964],[-77.26105081,3.95680377],[-77.25987998,3.95817396],[-77.25899933,3.95976365],[-77.25950716,3.96042874],[-77.25939337,3.96057341],[-77.25848544,3.96213528],[-77.25748596,3.96364281],[-77.25640251,3.9650805],[-77.25537253,3.96653726],[-77.25483081,3.96823911],[-77.25438828,3.96997506],[-77.25325146,3.97136337],[-77.25259893,3.97231557],[-77.2523483,3.97250268],[-77.2519793,3.97302204],[-77.25080233,3.97386154],[-77.24965025,3.97523009],[-77.24917721,3.97692455],[-77.24828453,3.97848642],[-77.24689592,3.9796082],[-77.24537511,3.98039019],[-77.24506271,3.97995753],[-77.24328591,3.97984311],[-77.2416051,3.97953011],[-77.23990526,3.97894242],[-77.23823384,3.97845622],[-77.23687219,3.97725937],[-77.23543234,3.9761751],[-77.23432939,3.97475104],[-77.23294221,3.97362651],[-77.23134316,3.97280084],[-77.22958697,3.97248022],[-77.22819675,3.97236848]]]]},"geometry_name":"geom","properties":{"unidad":"Suelos de clima cálido, pluvial y muy húmedo, originados principalmente de rocas sedimentarias del Terciario. Dystrudepts (45%), Hapludox (40%) y Hapludults (15%)","suelos":"LOMERÍO ESTRUCTURAL-EROSIONAL","shape_area":184.783157119}},{"type":"Feature","id":"geomorfologia.49","geometry":{"type":"MultiPolygon","coordinates":[[[[-77.21102062,3.97184871],[-77.21103131,3.97183099],[-77.2116505,3.97015468],[-77.21028519,3.96932744],[-77.20879581,3.9703281],[-77.20719725,3.97110741],[-77.20548453,3.97159863],[-77.20377569,3.97132358],[-77.20245764,3.97015812],[-77.20256757,3.96964803],[-77.20338395,3.96804609],[-77.20352206,3.96757788],[-77.20416056,3.96890267],[-77.20568577,3.96921688],[-77.20684339,3.96787942],[-77.20769429,3.96627458],[-77.20896917,3.96503489],[-77.2106543,3.96439125],[-77.2121172,3.96533726],[-77.21287576,3.96695351],[-77.213287,3.96870371],[-77.21434264,3.97012982],[-77.21442356,3.97191741],[-77.21357195,3.97347602],[-77.21292068,3.97513096],[-77.21328923,3.97672106],[-77.21509381,3.97677963],[-77.21641666,3.97558878],[-77.21779071,3.97442214],[-77.21924669,3.97336911],[-77.22027332,3.97187703],[-77.22160729,3.97068107],[-77.22293337,3.96946433],[-77.22425891,3.96825216],[-77.22581367,3.96733423],[-77.22725272,3.96627228],[-77.22840728,3.96487955],[-77.22976672,3.9637163],[-77.23125591,3.96269984],[-77.23303192,3.96247635],[-77.23479457,3.9621411],[-77.23656946,3.96192497],[-77.23832565,3.96152709],[-77.24006831,3.96110677],[-77.24186098,3.96100961],[-77.24259289,3.96152881],[-77.24121274,3.96269051],[-77.23958633,3.96338685],[-77.23779969,3.96361106],[-77.23604377,3.96394285],[-77.23424332,3.96393847],[-77.2324487,3.96397467],[-77.23081453,3.96426312],[-77.23018296,3.96588634],[-77.22871237,3.96692297],[-77.22721745,3.96792644],[-77.22613146,3.96933645],[-77.22631302,3.97097805],[-77.22694891,3.97105355],[-77.22592197,3.9722848],[-77.22447233,3.97334314],[-77.22291589,3.97425676],[-77.22158068,3.97546604],[-77.22024548,3.97667961],[-77.21891032,3.9778724],[-77.21787267,3.97936301],[-77.21641541,3.98041232],[-77.21503442,3.98157581],[-77.21370687,3.9827634],[-77.21189865,3.98269829],[-77.21153239,3.98110445],[-77.21218856,3.9794493],[-77.21305071,3.9778915],[-77.21297444,3.97610093],[-77.21192152,3.97466897],[-77.21151719,3.97291467],[-77.21102062,3.97184871]]]]},"geometry_name":"geom","properties":{"unidad":"Suelos de clima cálido, pluvial y muy húmedo, originados principalmente de rocas sedimentarias del Terciario. Dystrudepts (45%), Hapludox (40%) y Hapludults (15%)","suelos":"LOMERÍO ESTRUCTURAL-EROSIONAL","shape_area":188.723450611}},{"type":"Feature","id":"geomorfologia.50","geometry":{"type":"MultiPolygon","coordinates":[[[[-77.20201756,3.9584419],[-77.2022506,3.95801712],[-77.20204526,3.95630329],[-77.20112125,3.95491447],[-77.19955976,3.95404964],[-77.19933703,3.95388349],[-77.1999125,3.95332548],[-77.20117903,3.95204563],[-77.20125446,3.95199748],[-77.20170619,3.95219491],[-77.2034377,3.95255797],[-77.20505802,3.95336062],[-77.20565495,3.9550379],[-77.20568869,3.95684311],[-77.2056775,3.95864752],[-77.2052406,3.96038967],[-77.20473579,3.96212187],[-77.20435192,3.96288184],[-77.20435295,3.96276293],[-77.20433006,3.96095498],[-77.20373494,3.95927292],[-77.20211745,3.95846324],[-77.20201756,3.9584419]]]]},"geometry_name":"geom","properties":{"unidad":"Suelos de clima cálido, pluvial y muy húmedo, originados principalmente de rocas sedimentarias del Terciario. Dystrudepts (45%), Hapludox (40%) y Hapludults (15%)","suelos":"LOMERÍO ESTRUCTURAL-EROSIONAL","shape_area":37.7121648498}}],"crs":{"type":"name","properties":{"name":"urn:ogc:def:crs:EPSG::4326"}}}