{"type":"FeatureCollection","features":[{"type":"Feature","id":1,"geometry":{"type":"Point","coordinates":[-76.627611,5.571427]},"properties":{"OBJECTID":1,"Municipio":"Atrato","TipoSede":"Técnica","Sede":"Sede Técnica"}},{"type":"Feature","id":2,"geometry":{"type":"Point","coordinates":[-76.657149,5.693072]},"properties":{"OBJECTID":2,"Municipio":"Quibdó","TipoSede":"Administrativa","Sede":"Sede Principal"}},{"type":"Feature","id":3,"geometry":{"type":"Point","coordinates":[-76.996024,3.872925]},"properties":{"OBJECTID":3,"Municipio":"Buenaventura","TipoSede":"Técnica","Sede":"Sede Buenaventura"}},{"type":"Feature","id":4,"geometry":{"type":"Point","coordinates":[-77.884062,2.569966]},"properties":{"OBJECTID":4,"Municipio":"Guapi","TipoSede":"Técnica","Sede":"Sede Guapi"}},{"type":"Feature","id":5,"geometry":{"type":"Point","coordinates":[-78.748094,1.819821]},"properties":{"OBJECTID":5,"Municipio":"Tumaco","TipoSede":"Técnica","Sede":"Sede Tumaco"}},{"type":"Feature","id":6,"geometry":{"type":"Point","coordinates":[-74.085792,4.636965]},"properties":{"OBJECTID":6,"Municipio":"Bogotá","TipoSede":"Administrativa","Sede":"Sede Bogotá"}}]}