{
  "type": "FeatureCollection",
  "features": [
    {
      "type": "Feature",
      "properties": {
        "speciesId": "tigrillo-001",
        "speciesName": "Leopardus tigrinus",
        "commonName": "Tigrillo",
        "category": "mamiferos",
        "threatStatus": "VU",
        "endemic": false,
        "note": "Rango amplio en zonas boscosas del Chocó"
      },
      "geometry": {
        "type": "Polygon",
        "coordinates": [
          [
            [-77.8, 7.5],
            [-77.5, 7.3],
            [-77.2, 7.0],
            [-77.0, 6.5],
            [-76.8, 6.0],
            [-76.6, 5.5],
            [-76.5, 5.0],
            [-76.4, 4.5],
            [-76.6, 4.3],
            [-76.8, 4.2],
            [-77.0, 4.15],
            [-77.2, 4.2],
            [-77.4, 4.3],
            [-77.6, 4.5],
            [-77.8, 4.7],
            [-78.0, 5.0],
            [-78.2, 5.3],
            [-78.3, 5.6],
            [-78.4, 6.0],
            [-78.4, 6.4],
            [-78.3, 6.8],
            [-78.2, 7.0],
            [-78.0, 7.2],
            [-77.8, 7.5]
          ]
        ]
      }
    },
    {
      "type": "Feature",
      "properties": {
        "speciesId": "ave-001",
        "speciesName": "Chlorochrysa nitidissima",
        "commonName": "Tangara Multicolor",
        "category": "aves",
        "threatStatus": "CR",
        "endemic": true,
        "note": "Rango muy restringido en montañas del Chocó 600-1200 msnm"
      },
      "geometry": {
        "type": "Polygon",
        "coordinates": [
          [
            [-76.8, 5.0],
            [-76.6, 4.9],
            [-76.5, 4.7],
            [-76.4, 4.5],
            [-76.5, 4.3],
            [-76.7, 4.2],
            [-76.9, 4.25],
            [-77.1, 4.35],
            [-77.3, 4.5],
            [-77.4, 4.7],
            [-77.3, 4.9],
            [-77.1, 5.0],
            [-76.9, 5.05],
            [-76.8, 5.0]
          ]
        ]
      }
    },
    {
      "type": "Feature",
      "properties": {
        "speciesId": "ave-002",
        "speciesName": "Grallaria alleni",
        "commonName": "Tororoi Bigotudo",
        "category": "aves",
        "threatStatus": "EN",
        "endemic": true,
        "note": "Sotobosque de bosques muy húmedos premontanos"
      },
      "geometry": {
        "type": "Polygon",
        "coordinates": [
          [
            [-77.5, 6.8],
            [-77.2, 6.7],
            [-77.0, 6.5],
            [-76.8, 6.3],
            [-76.7, 6.0],
            [-76.8, 5.8],
            [-77.0, 5.7],
            [-77.2, 5.75],
            [-77.4, 5.85],
            [-77.6, 6.0],
            [-77.7, 6.2],
            [-77.7, 6.4],
            [-77.6, 6.6],
            [-77.5, 6.8]
          ]
        ]
      }
    },
    {
      "type": "Feature",
      "properties": {
        "speciesId": "anfibio-001",
        "speciesName": "Dendrobates truncatus",
        "commonName": "Rana Venenosa de Patas Amarillas",
        "category": "anfibios",
        "threatStatus": "LC",
        "endemic": false,
        "note": "Hojarasca de bosques húmedos de tierras bajas"
      },
      "geometry": {
        "type": "Polygon",
        "coordinates": [
          [
            [-77.0, 7.8],
            [-76.7, 7.5],
            [-76.5, 7.0],
            [-76.3, 6.5],
            [-76.2, 6.0],
            [-76.3, 5.5],
            [-76.5, 5.2],
            [-76.7, 5.0],
            [-77.0, 4.9],
            [-77.3, 5.0],
            [-77.5, 5.2],
            [-77.7, 5.5],
            [-77.8, 6.0],
            [-77.8, 6.5],
            [-77.7, 7.0],
            [-77.5, 7.4],
            [-77.3, 7.6],
            [-77.0, 7.8]
          ]
        ]
      }
    },
    {
      "type": "Feature",
      "properties": {
        "speciesId": "planta-001",
        "speciesName": "Wettinia quinaria",
        "commonName": "Palma de Macana",
        "category": "plantas",
        "threatStatus": "LC",
        "endemic": false,
        "note": "Común en bosques húmedos, cerca de ríos"
      },
      "geometry": {
        "type": "Polygon",
        "coordinates": [
          [
            [-78.0, 8.0],
            [-77.5, 7.8],
            [-77.0, 7.5],
            [-76.7, 7.0],
            [-76.5, 6.5],
            [-76.4, 6.0],
            [-76.3, 5.5],
            [-76.2, 5.0],
            [-76.3, 4.5],
            [-76.5, 4.3],
            [-76.8, 4.2],
            [-77.2, 4.25],
            [-77.6, 4.4],
            [-78.0, 4.6],
            [-78.3, 5.0],
            [-78.5, 5.5],
            [-78.6, 6.0],
            [-78.6, 6.5],
            [-78.5, 7.0],
            [-78.3, 7.5],
            [-78.0, 8.0]
          ]
        ]
      }
    }
  ]
}
